SL-14 R/B               
1 16792U 86046B   26071.97301139  .00000562  00000+0  61966-4 0  9992
2 16792  82.4783  77.0784 0022193 213.9865 145.9931 14.85593958126898
SL-14 R/B               
1 16882U 86055B   26071.64178876  .00000506  00000+0  55473-4 0  9990
2 16882  82.5196 123.8994 0017941 326.4064 148.8115 14.85645631119801
AJISAI (EGS)            
1 16908U 86061A   26071.99873515 -.00000099  00000+0 -14041-4 0  9991
2 16908  50.0081  83.1718 0011282 295.5553  91.8994 12.44515641468412
SL-14 R/B               
1 17567U 87024B   26072.00521402  .00000541  00000+0  58814-4 0  9997
2 17567  82.5244  89.6466 0016758 247.9637 111.9799 14.86135556 88622
COSMOS 1833             
1 17589U 87027A   26071.76265247 -.00000197  00000+0 -79660-4 0  9999
2 17589  70.9217 319.5609 0024120 210.2000 149.7732 14.13054014 10754
SL-16 R/B               
1 17590U 87027B   26071.93917242  .00000047  00000+0  47083-4 0  9995
2 17590  70.9996 269.6471 0003229 135.5963 224.5420 14.17166601 15803
SL-14 R/B               
1 17912U 87038B   26071.66506960  .00000497  00000+0  54806-4 0  9996
2 17912  82.4995 294.0046 0019915 150.9335 209.2994 14.85372207 79678
COSMOS 1844             
1 17973U 87041A   26071.86527705 -.00000123  00000+0 -38561-4 0  9997
2 17973  70.9001  27.4768 0030188  13.1537 347.0364 14.14551632  4036
SL-14 R/B               
1 18153U 87055B   26071.91087066  .00000611  00000+0  67502-4 0  9997
2 18153  82.5030 345.9965 0020882   7.3494 352.8024 14.85633643 70415
COSMOS 1867             
1 18187U 87060A   26071.72476343 -.00000026  00000+0  27854-4 0  9996
2 18187  65.0108 298.2061 0014533 278.8556  81.0883 14.31503615 20371
SL-14 R/B               
1 18749U 88001B   26071.77169454  .00000700  00000+0  78105-4 0  9996
2 18749  82.5157 192.4619 0017017 224.8310 135.1533 14.85532281 42485
COSMOS 1933             
1 18958U 88020A   26071.55868117  .00005631  00000+0  27542-3 0  9993
2 18958  82.5104 248.0725 0004156 172.1951 187.9349 15.18014469 50660
